NORAD_CAT_ID,OBJECT_NAME,OBJECT_TYPE,EPOCH,MEAN_MOTION,ECCENTRICITY,INCLINATION,RA_OF_ASC_NODE,ARG_OF_PERICENTER,MEAN_ANOMALY,BSTAR,MEAN_MOTION_DOT,MEAN_MOTION_DDOT,TLE_LINE0,TLE_LINE1,TLE_LINE2,SEMIMAJOR_AXIS,PERIOD,APOGEE,PERIGEE,DECAYED
54082.0,STARLINK-5210,PAYLOAD,2022-11-27 20:00:01,15.73165303,0.0003988,53.2151,318.7290000000001,6.2354,91.6988,0.00039281,0.00054804,0.0,0 STARLINK-5210,1 54082U 22136AH  22331.83334491  .00054804  00000-0  39281-3 0  9996,2 54082  53.2151 318.7290 0003988   6.2354  91.6988 15.73165303  6524,6727.994000000002,91.535,352.542,347.176,0.0
54082.0,STARLINK-5210,PAYLOAD,2022-11-27 22:00:00,15.7319991,0.0003925,53.2152,318.3165,6.4086,203.7424,-6.733600000000001e-05,-0.00010068,0.0,0 STARLINK-5210,1 54082U 22136AH  22331.91667824 -.00010068  00000-0 -67336-4 0  9993,2 54082  53.2152 318.3165 0003925   6.4086 203.7424 15.73199910  1300,6727.895,91.533,352.401,347.12,0.0
54082.0,STARLINK-5210,PAYLOAD,2022-11-28 12:00:00,15.73180378,0.0004222,53.215,315.4319,2.7722,272.999,-2.0780000000000003e-06,-9.17e-06,0.0,0 STARLINK-5210,1 54082U 22136AH  22332.50001157 -.00000917  00000-0 -20780-5 0  9995,2 54082  53.2150 315.4319 0004222   2.7722 272.9990 15.73180378  6639,6727.951,91.534,352.657,346.976,0.0
54082.0,STARLINK-5210,PAYLOAD,2022-11-28 22:00:01,15.73175733,0.0003963,53.2155,313.3679,4.3441,112.6198,0.00060716,0.00085399,0.0,0 STARLINK-5210,1 54082U 22136AH  22332.91668981  .00085399  00000-0  60716-3 0  9990,2 54082  53.2155 313.3679 0003963   4.3441 112.6198 15.73175733  1305,6727.964,91.535,352.496,347.163,0.0
54082.0,STARLINK-5210,PAYLOAD,2022-11-29 04:00:00,15.73259391,0.0004134,53.2154,312.1325,3.8755,89.7114,-0.00053907,-0.00075835,0.0,0 STARLINK-5210,1 54082U 22136AH  22333.16667824 -.00075835  00000-0 -53907-3 0  9993,2 54082  53.2154 312.1325 0004134   3.8755  89.7114 15.73259391  6739,6727.726,91.53,352.372,346.81,0.0
54082.0,STARLINK-5210,PAYLOAD,2022-11-29 14:00:01,15.73301218,0.000398,53.2158,310.0665,357.0656,297.7697,-0.0022262,-0.00303583,0.0,0 STARLINK-5210,1 54082U 22136AH  22333.58335648 -.00303583  00000-0 -22262-2 0  9998,2 54082  53.2158 310.0665 0003980 357.0656 297.7697 15.73301218  1300,6727.607,91.527,352.149,346.7940000000001,0.0
54082.0,STARLINK-5210,PAYLOAD,2022-11-29 20:00:01,15.73227491,0.0003652,53.2165,308.8261,339.8996,291.5796,-0.0046207,-0.0060568,0.0,0 STARLINK-5210,1 54082U 22136AH  22333.83334491 -.00605680  00000-0 -46207-2 0  9999,2 54082  53.2165 308.8261 0003652 339.8996 291.5796 15.73227491  6842,6727.816999999999,91.532,352.139,347.225,0.0
54082.0,STARLINK-5210,PAYLOAD,2022-11-29 22:00:00,15.73177071,0.0003772,53.2168,308.4129,332.4238,51.2676,-0.0057373,-0.00738666,0.0,0 STARLINK-5210,1 54082U 22136AH  22333.91667824 -.00738666  00000-0 -57373-2 0  9994,2 54082  53.2168 308.4129 0003772 332.4238  51.2676 15.73177071  1307,6727.9609999999975,91.535,352.36300000000006,347.288,0.0
54082.0,STARLINK-5210,PAYLOAD,2022-11-30 04:00:00,15.72853371,0.0004524,53.2174,307.1761,299.7635,60.4293,-0.0090721,-0.0112259,0.0,0 STARLINK-5210,1 54082U 22136AH  22334.16667824 -.01122590  00000-0 -90721-2 0  9990,2 54082  53.2174 307.1761 0004524 299.7635  60.4293 15.72853371  6893,6728.884,91.553,353.793,347.704,0.0
54082.0,STARLINK-5210,PAYLOAD,2022-11-30 14:00:01,15.71844128,0.0006649,53.2174,305.1163,275.0226,285.0983,-0.0095736,-0.01134624,0.0,0 STARLINK-5210,1 54082U 22136AH  22334.58335648 -.01134624  00000-0 -95736-2 0  9994,2 54082  53.2174 305.1163 0006649 275.0226 285.0983 15.71844128  1301,6731.764,91.612,358.105,349.153,0.0
54082.0,STARLINK-5210,PAYLOAD,2022-11-30 20:00:01,15.71233254,0.0006588999999999,53.2172,303.8809,270.51,264.7326,-0.009832,-0.01135167,0.0,0 STARLINK-5210,1 54082U 22136AH  22334.83334491 -.01135167  00000-0 -98320-2 0  9992,2 54082  53.2172 303.8809 0006589 270.5100 264.7326 15.71233254  6992,6733.5080000000025,91.648,359.81,350.93699999999984,0.0
54082.0,STARLINK-5210,PAYLOAD,2022-11-30 22:00:00,15.71010087,0.0006242999999999,53.2175,303.4698,268.643,18.2122,-0.0095806,-0.01099535,0.0,0 STARLINK-5210,1 54082U 22136AH  22334.91667824 -.01099535  00000-0 -95806-2 0  9994,2 54082  53.2175 303.4698 0006243 268.6430  18.2122 15.71010087  1301,6734.146,91.661,360.215,351.807,0.0
54082.0,STARLINK-5210,PAYLOAD,2022-12-01 14:00:01,15.69409881,0.0001976,53.2175,300.1863,273.9224,183.5738,-0.010731,-0.0116217,0.0,0 STARLINK-5210,1 54082U 22136AH  22335.58334491 -.01162170  00000-0 -10731-1 0  9998,2 54082  53.2175 300.1863 0001976 273.9224 183.5738 15.69409881  1307,6738.723000000001,91.754,361.919,359.256,0.0
54082.0,STARLINK-5210,PAYLOAD,2022-12-01 20:00:01,15.68600337,0.0005242999999999,53.2166,298.9565,269.4704,161.1934,-0.0085583,-0.00891874,0.0,0 STARLINK-5210,1 54082U 22136AH  22335.83335648 -.00891874  00000-0 -85583-2 0  9998,2 54082  53.2166 298.9565 0005243 269.4704 161.1934 15.68600337  7151,6741.041,91.802,366.44,359.372,0.0
54082.0,STARLINK-5210,PAYLOAD,2022-12-01 22:00:00,15.68479796,0.0004769,53.2169,298.5474,269.2199,272.1905,-0.0094663,-0.00987662,0.0,0 STARLINK-5210,1 54082U 22136AH  22335.91667824 -.00987662  00000-0 -94663-2 0  9991,2 54082  53.2169 298.5474 0004769 269.2199 272.1905 15.68479796  1302,6741.386,91.809,366.466,360.036,0.0
54082.0,STARLINK-5210,PAYLOAD,2022-12-02 04:00:00,15.67975125,9.84e-05,53.2174,297.3199,130.7996,22.8115,-0.011193,-0.01143651,0.0,0 STARLINK-5210,1 54082U 22136AH  22336.16667824 -.01143651  00000-0 -11193-1 0  9998,2 54082  53.2174 297.3199 0000984 130.7996  22.8115 15.67975125  7205,6742.833000000001,91.838,365.361,364.034,0.0
54082.0,STARLINK-5210,PAYLOAD,2022-12-02 14:00:01,15.66955491,7.13e-05,53.217,295.2752,78.6232,267.5205,-0.011619,-0.01138925,0.0,0 STARLINK-5210,1 54082U 22136AH  22336.58334491 -.01138925  00000-0 -11619-1 0  9996,2 54082  53.2170 295.2752 0000713  78.6232 267.5205 15.66955491  1302,6745.7580000000025,91.898,368.104,367.142,0.0
54082.0,STARLINK-5210,PAYLOAD,2022-12-02 20:00:01,15.66376623,0.0001042,53.2164,294.0493,81.8405,235.0711,-0.012353,-0.01178547,0.0,0 STARLINK-5210,1 54082U 22136AH  22336.83334491 -.01178547  00000-0 -12353-1 0  9994,2 54082  53.2164 294.0493 0001042  81.8405 235.0711 15.66376623  7311,6747.42,91.932,369.98800000000006,368.581,0.0
54082.0,STARLINK-5210,PAYLOAD,2022-12-02 22:00:00,15.66149375,0.0001089,53.2168,293.6411,71.9291,355.1355,-0.012117,-0.01148545,0.0,0 STARLINK-5210,1 54082U 22136AH  22336.91667824 -.01148545  00000-0 -12117-1 0  9995,2 54082  53.2168 293.6411 0001089  71.9291 355.1355 15.66149375  1307,6748.071999999999,91.945,370.672,369.202,0.0
54082.0,STARLINK-5210,PAYLOAD,2022-12-03 14:00:01,15.64523653,0.0001141,53.2171,290.3809,84.0498,141.9313,-0.012982,-0.0115217,0.0,0 STARLINK-5210,1 54082U 22136AH  22337.58334491 -.01152170  00000-0 -12982-1 0  9999,2 54082  53.2171 290.3809 0001141  84.0498 141.9313 15.64523653  1307,6752.746,92.041,375.382,373.841,0.0
54082.0,STARLINK-5210,PAYLOAD,2022-12-03 22:00:00,15.63706543,0.0001054,53.2169,288.7532,81.9358,222.0373,-0.013314,-0.01144525,0.0,0 STARLINK-5210,1 54082U 22136AH  22337.91667824 -.01144525  00000-0 -13314-1 0  9990,2 54082  53.2169 288.7532 0001054  81.9358 222.0373 15.63706543  1309,6755.098000000001,92.089,377.675,376.251,0.0
54082.0,STARLINK-5210,PAYLOAD,2022-12-04 04:00:00,15.63113414,0.0001155,53.2171,287.5359,86.7993,185.0131,-0.013882,-0.01163631,0.0,0 STARLINK-5210,1 54082U 22136AH  22338.16667824 -.01163631  00000-0 -13882-1 0  9997,2 54082  53.2171 287.5359 0001155  86.7993 185.0131 15.63113414  7525,6756.807,92.124,379.452,377.892,0.0
54082.0,STARLINK-5210,PAYLOAD,2022-12-04 14:00:01,15.62082165,0.0001105,53.217,285.5048,81.2751,15.7463,-0.014259,-0.01149178,0.0,0 STARLINK-5210,1 54082U 22136AH  22338.58334491 -.01149178  00000-0 -14259-1 0  9993,2 54082  53.2170 285.5048 0001105  81.2751  15.7463 15.62082165  1308,6759.78,92.185,382.392,380.899,0.0
54082.0,STARLINK-5210,PAYLOAD,2022-12-04 22:00:00,15.61270074,0.0001190999999999,53.2167,283.8829,81.5169,90.5614,-0.014733,-0.0115022,0.0,0 STARLINK-5210,1 54082U 22136AH  22338.91667824 -.01150220  00000-0 -14733-1 0  9996,2 54082  53.2167 283.8829 0001191  81.5169  90.5614 15.61270074  1309,6762.124,92.233,384.795,383.184,0.0
54082.0,STARLINK-5210,PAYLOAD,2022-12-05 04:00:00,15.60667277,0.0001166,53.2167,282.67,87.6452,50.0777,-0.015181,-0.0115703,0.0,0 STARLINK-5210,1 54082U 22136AH  22339.16667824 -.01157030  00000-0 -15181-1 0  9998,2 54082  53.2167 282.6700 0001166  87.6452  50.0777 15.60667277  7679,6763.865,92.268,386.519,384.942,0.0
54082.0,STARLINK-5210,PAYLOAD,2022-12-05 14:00:01,15.59656334,0.0001014,53.2169,280.6464,91.8,227.5188,-0.0159629999999999,-0.01168749,0.0,0 STARLINK-5210,1 54082U 22136AH  22339.58335648 -.01168749  00000-0 -15963-1 0  9997,2 54082  53.2169 280.6464 0001014  91.8000 227.5188 15.59656334  1305,6766.788000000001,92.328,389.339,387.967,0.0
54082.0,STARLINK-5210,PAYLOAD,2022-12-05 22:00:01,15.58817017,0.0001039,53.2175,279.0296,86.7003,304.7562,-0.0159449999999999,-0.01134133,0.0,0 STARLINK-5210,1 54082U 22136AH  22339.91668981 -.01134133  00000-0 -15945-1 0  9993,2 54082  53.2175 279.0296 0001039  86.7003 304.7562 15.58817017  1300,6769.217,92.378,391.785,390.378,0.0
54082.0,STARLINK-5210,PAYLOAD,2022-12-06 06:00:00,15.58018904,0.0001164,53.217,277.41900000000004,85.4718,17.0555,-0.016729,-0.01152394,0.0,0 STARLINK-5210,1 54082U 22136AH  22340.25001157 -.01152394  00000-0 -16729-1 0  9998,2 54082  53.2170 277.4190 0001164  85.4718  17.0555 15.58018904  7847,6771.528,92.425,394.181,392.605,0.0
54082.0,STARLINK-5210,PAYLOAD,2022-12-06 14:00:01,15.57200967,0.0001177,53.2172,275.8052,89.5952,83.1708,-0.017199,-0.0114905,0.0,0 STARLINK-5210,1 54082U 22136AH  22340.58335648 -.01149050  00000-0 -17199-1 0  9996,2 54082  53.2172 275.8052 0001177  89.5952  83.1708 15.57200967  1307,6773.899,92.474,396.562,394.967,0.0
